[{"OBJECT_NAME":"ONEWEB-0575","OBJECT_ID":"2023-043U","EPOCH":"2026-03-09T21:42:34.471296","MEAN_MOTION":13.16593405,"ECCENTRICITY":0.0001219,"INCLINATION":87.9002,"RA_OF_ASC_NODE":248.5157,"ARG_OF_PERICENTER":88.4532,"MEAN_ANOMALY":271.6739,"EPHEMERIS_TYPE":0,"CLASSIFICATION_TYPE":"U","NORAD_CAT_ID":56064,"ELEMENT_SET_NO":999,"REV_AT_EPOCH":14590,"BSTAR":-0.00027145639,"MEAN_MOTION_DOT":-9.1e-7,"MEAN_MOTION_DDOT":0},{"OBJECT_NAME":"SL-8 R\/B","OBJECT_ID":"1968-011B","EPOCH":"2026-03-09T21:54:14.921280","MEAN_MOTION":13.18032414,"ECCENTRICITY":0.00139713,"INCLINATION":74.0473,"RA_OF_ASC_NODE":261.6495,"ARG_OF_PERICENTER":127.6658,"MEAN_ANOMALY":232.5701,"EPHEMERIS_TYPE":0,"CLASSIFICATION_TYPE":"U","NORAD_CAT_ID":3131,"ELEMENT_SET_NO":999,"REV_AT_EPOCH":79227,"BSTAR":-0.00016874239,"MEAN_MOTION_DOT":-8.5e-7,"MEAN_MOTION_DDOT":0}]
